{
  "type": "FeatureCollection",
  "generator": "overpass-turbo",
  "copyright": "The data included in this document is from www.openstreetmap.org. The data is made available under ODbL.",
  "timestamp": "2026-06-07T17:56:45Z",
  "features": [
    {
      "type": "Feature",
      "properties": {
        "@id": "relation/4499832",
        "admin_level": "8",
        "boundary": "administrative",
        "name": "El Alto",
        "official_name": "Municipio El Alto",
        "population": "405492",
        "population:1992": "405492",
        "population:2001": "649958",
        "population:2012": "848452",
        "population:2024": "885035",
        "source:population:1992": "INE-CENSO1992",
        "source:population:2001": "INE-CENSO2001",
        "source:population:2012": "INE-CENSO2012",
        "source:population:2024": "INE-CENSO2024",
        "start_date": "1985-03-06",
        "type": "boundary",
        "wikidata": "Q955745",
        "wikipedia": "en:El Alto Municipality"
      },
      "geometry": {
        "type": "Polygon",
        "coordinates": [
          [
            [
              -68.1537218,
              -16.2626621
            ],
            [
              -68.1540161,
              -16.2630273
            ],
            [
              -68.1540211,
              -16.2630334
            ],
            [
              -68.1655838,
              -16.2773774
            ],
            [
              -68.1702945,
              -16.292807
            ],
            [
              -68.1853242,
              -16.3026254
            ],
            [
              -68.2054855,
              -16.3365418
            ],
            [
              -68.2163107,
              -16.3834605
            ],
            [
              -68.2433743,
              -16.3927178
            ],
            [
              -68.2572792,
              -16.4204793
            ],
            [
              -68.263547,
              -16.4329906
            ],
            [
              -68.2636537,
              -16.4332035
            ],
            [
              -68.2641965,
              -16.4327579
            ],
            [
              -68.2675804,
              -16.4299804
            ],
            [
              -68.2920611,
              -16.4625164
            ],
            [
              -68.2953498,
              -16.4668862
            ],
            [
              -68.2975919,
              -16.4707382
            ],
            [
              -68.3000628,
              -16.4689806
            ],
            [
              -68.301111,
              -16.468235
            ],
            [
              -68.3034971,
              -16.4712454
            ],
            [
              -68.3084132,
              -16.4774475
            ],
            [
              -68.3103409,
              -16.4813219
            ],
            [
              -68.3106351,
              -16.4819132
            ],
            [
              -68.3125783,
              -16.4858186
            ],
            [
              -68.3146225,
              -16.4899267
            ],
            [
              -68.3150038,
              -16.4907459
            ],
            [
              -68.32013,
              -16.5017602
            ],
            [
              -68.3180935,
              -16.5035382
            ],
            [
              -68.3154675,
              -16.5058309
            ],
            [
              -68.3148698,
              -16.5063547
            ],
            [
              -68.307365,
              -16.5129311
            ],
            [
              -68.3069195,
              -16.5127903
            ],
            [
              -68.3053251,
              -16.5122938
            ],
            [
              -68.3050628,
              -16.5122035
            ],
            [
              -68.3046049,
              -16.512046
            ],
            [
              -68.3026203,
              -16.5113632
            ],
            [
              -68.3015998,
              -16.5111068
            ],
            [
              -68.2973096,
              -16.5107225
            ],
            [
              -68.2957568,
              -16.5103132
            ],
            [
              -68.2957371,
              -16.510308
            ],
            [
              -68.2876638,
              -16.5103722
            ],
            [
              -68.2876645,
              -16.5103738
            ],
            [
              -68.2936908,
              -16.5237452
            ],
            [
              -68.291641,
              -16.5267535
            ],
            [
              -68.290251,
              -16.5287934
            ],
            [
              -68.2804564,
              -16.5396668
            ],
            [
              -68.2694523,
              -16.5294162
            ],
            [
              -68.2610707,
              -16.5216076
            ],
            [
              -68.2610698,
              -16.521609
            ],
            [
              -68.2610301,
              -16.5216667
            ],
            [
              -68.2557615,
              -16.5293459
            ],
            [
              -68.2519134,
              -16.5284028
            ],
            [
              -68.2506681,
              -16.5298
            ],
            [
              -68.2469723,
              -16.5339464
            ],
            [
              -68.2458486,
              -16.5350175
            ],
            [
              -68.2419911,
              -16.5386943
            ],
            [
              -68.2369389,
              -16.5435095
            ],
            [
              -68.2369352,
              -16.543513
            ],
            [
              -68.2367593,
              -16.5436807
            ],
            [
              -68.2367417,
              -16.5436974
            ],
            [
              -68.2386956,
              -16.5453653
            ],
            [
              -68.239943,
              -16.5464302
            ],
            [
              -68.2436911,
              -16.5496296
            ],
            [
              -68.2445512,
              -16.5503637
            ],
            [
              -68.2454587,
              -16.5511383
            ],
            [
              -68.2459631,
              -16.5518715
            ],
            [
              -68.2466811,
              -16.5529149
            ],
            [
              -68.2470948,
              -16.5535162
            ],
            [
              -68.2489147,
              -16.5561611
            ],
            [
              -68.2512632,
              -16.5595739
            ],
            [
              -68.2525836,
              -16.5597225
            ],
            [
              -68.2529179,
              -16.5597601
            ],
            [
              -68.2529181,
              -16.5597601
            ],
            [
              -68.2529185,
              -16.5597601
            ],
            [
              -68.2552191,
              -16.5600189
            ],
            [
              -68.2554279,
              -16.5600424
            ],
            [
              -68.258944,
              -16.5604379
            ],
            [
              -68.2592153,
              -16.5604684
            ],
            [
              -68.259377,
              -16.5606506
            ],
            [
              -68.259377,
              -16.5606507
            ],
            [
              -68.2594861,
              -16.5607737
            ],
            [
              -68.2517139,
              -16.5633565
            ],
            [
              -68.2454954,
              -16.565595
            ],
            [
              -68.2340717,
              -16.5692956
            ],
            [
              -68.2320423,
              -16.5698883
            ],
            [
              -68.2260202,
              -16.5718872
            ],
            [
              -68.2254919,
              -16.5720671
            ],
            [
              -68.2253519,
              -16.5720054
            ],
            [
              -68.2237736,
              -16.5702991
            ],
            [
              -68.2232891,
              -16.5703915
            ],
            [
              -68.2221724,
              -16.5706043
            ],
            [
              -68.2205538,
              -16.5709128
            ],
            [
              -68.2189851,
              -16.5711692
            ],
            [
              -68.217217,
              -16.5714795
            ],
            [
              -68.217146,
              -16.5714455
            ],
            [
              -68.2157122,
              -16.5716826
            ],
            [
              -68.2150566,
              -16.5718585
            ],
            [
              -68.2129364,
              -16.5722306
            ],
            [
              -68.2108602,
              -16.5726048
            ],
            [
              -68.2061961,
              -16.5734187
            ],
            [
              -68.2061773,
              -16.573422
            ],
            [
              -68.2061594,
              -16.5734251
            ],
            [
              -68.2060018,
              -16.573461
            ],
            [
              -68.2061406,
              -16.5735612
            ],
            [
              -68.2062657,
              -16.5736677
            ],
            [
              -68.2065612,
              -16.5739468
            ],
            [
              -68.2078429,
              -16.575272
            ],
            [
              -68.2096326,
              -16.577173
            ],
            [
              -68.2103795,
              -16.5779914
            ],
            [
              -68.2111345,
              -16.5788526
            ],
            [
              -68.2119107,
              -16.5797572
            ],
            [
              -68.2129505,
              -16.5809514
            ],
            [
              -68.2134336,
              -16.581504
            ],
            [
              -68.2143654,
              -16.5825304
            ],
            [
              -68.2151295,
              -16.5833719
            ],
            [
              -68.2156654,
              -16.5840338
            ],
            [
              -68.2162618,
              -16.5847268
            ],
            [
              -68.2169592,
              -16.5855523
            ],
            [
              -68.217583,
              -16.5863042
            ],
            [
              -68.2182926,
              -16.5871452
            ],
            [
              -68.2191363,
              -16.5881133
            ],
            [
              -68.2197773,
              -16.5888977
            ],
            [
              -68.2201876,
              -16.5893876
            ],
            [
              -68.2206909,
              -16.5899331
            ],
            [
              -68.2222731,
              -16.5916055
            ],
            [
              -68.2227009,
              -16.5921196
            ],
            [
              -68.2232058,
              -16.5926406
            ],
            [
              -68.2251951,
              -16.5945615
            ],
            [
              -68.2313362,
              -16.6008121
            ],
            [
              -68.2328292,
              -16.602435
            ],
            [
              -68.2329763,
              -16.6025949
            ],
            [
              -68.2372315,
              -16.6072197
            ],
            [
              -68.2372316,
              -16.6072197
            ],
            [
              -68.2385831,
              -16.608779
            ],
            [
              -68.2393859,
              -16.6096769
            ],
            [
              -68.2398758,
              -16.6100935
            ],
            [
              -68.236422,
              -16.6114197
            ],
            [
              -68.2361865,
              -16.6115122
            ],
            [
              -68.2346685,
              -16.612193
            ],
            [
              -68.2261642,
              -16.6167566
            ],
            [
              -68.206123,
              -16.6269919
            ],
            [
              -68.2056828,
              -16.6272167
            ],
            [
              -68.179672,
              -16.6560355
            ],
            [
              -68.1736051,
              -16.6587726
            ],
            [
              -68.1725791,
              -16.6592355
            ],
            [
              -68.172495,
              -16.6591629
            ],
            [
              -68.1702677,
              -16.6603656
            ],
            [
              -68.1701092,
              -16.660508
            ],
            [
              -68.1697411,
              -16.6607342
            ],
            [
              -68.1692137,
              -16.6613644
            ],
            [
              -68.1686089,
              -16.6624021
            ],
            [
              -68.1680618,
              -16.6631773
            ],
            [
              -68.1679369,
              -16.6634591
            ],
            [
              -68.1679368,
              -16.6634593
            ],
            [
              -68.1671202,
              -16.6641137
            ],
            [
              -68.1659137,
              -16.664613
            ],
            [
              -68.1658239,
              -16.6647589
            ],
            [
              -68.1658235,
              -16.6647595
            ],
            [
              -68.1659162,
              -16.6649948
            ],
            [
              -68.1659163,
              -16.6649949
            ],
            [
              -68.1652764,
              -16.6656158
            ],
            [
              -68.165276,
              -16.6656161
            ],
            [
              -68.1648148,
              -16.6666898
            ],
            [
              -68.1646887,
              -16.6669833
            ],
            [
              -68.1646885,
              -16.6669839
            ],
            [
              -68.1642219,
              -16.6668375
            ],
            [
              -68.158054,
              -16.6642923
            ],
            [
              -68.1568364,
              -16.6638895
            ],
            [
              -68.153799,
              -16.6628847
            ],
            [
              -68.1441143,
              -16.6598682
            ],
            [
              -68.1425635,
              -16.6593852
            ],
            [
              -68.1373674,
              -16.6561752
            ],
            [
              -68.1368922,
              -16.6558816
            ],
            [
              -68.1256931,
              -16.6449111
            ],
            [
              -68.1255524,
              -16.6447733
            ],
            [
              -68.1194113,
              -16.6419279
            ],
            [
              -68.1174616,
              -16.6407373
            ],
            [
              -68.108265,
              -16.6351211
            ],
            [
              -68.1082663,
              -16.6351211
            ],
            [
              -68.1308623,
              -16.6343952
            ],
            [
              -68.1283354,
              -16.6211805
            ],
            [
              -68.1331744,
              -16.6187474
            ],
            [
              -68.1418624,
              -16.6143796
            ],
            [
              -68.1438784,
              -16.613366
            ],
            [
              -68.1452272,
              -16.6122804
            ],
            [
              -68.1535537,
              -16.6055784
            ],
            [
              -68.1586489,
              -16.597775
            ],
            [
              -68.1673238,
              -16.5941042
            ],
            [
              -68.1680022,
              -16.5919089
            ],
            [
              -68.1684174,
              -16.5905651
            ],
            [
              -68.1696627,
              -16.5865346
            ],
            [
              -68.1715803,
              -16.585746
            ],
            [
              -68.1719252,
              -16.5856322
            ],
            [
              -68.1726017,
              -16.585409
            ],
            [
              -68.1731191,
              -16.5849311
            ],
            [
              -68.1741235,
              -16.5840033
            ],
            [
              -68.1751779,
              -16.5810746
            ],
            [
              -68.1787615,
              -16.5805051
            ],
            [
              -68.1801213,
              -16.5794167
            ],
            [
              -68.180373,
              -16.5790518
            ],
            [
              -68.1811009,
              -16.577942
            ],
            [
              -68.1821478,
              -16.576346
            ],
            [
              -68.1840647,
              -16.5751532
            ],
            [
              -68.1842499,
              -16.575038
            ],
            [
              -68.1846939,
              -16.5747617
            ],
            [
              -68.1849253,
              -16.5735569
            ],
            [
              -68.1849991,
              -16.5731719
            ],
            [
              -68.1840612,
              -16.5712951
            ],
            [
              -68.1835349,
              -16.5702417
            ],
            [
              -68.1834446,
              -16.570061
            ],
            [
              -68.1830494,
              -16.5696561
            ],
            [
              -68.181577,
              -16.5681476
            ],
            [
              -68.1809028,
              -16.5674569
            ],
            [
              -68.1805299,
              -16.5670748
            ],
            [
              -68.1802628,
              -16.5664949
            ],
            [
              -68.1801066,
              -16.5661557
            ],
            [
              -68.1794237,
              -16.5646735
            ],
            [
              -68.1794238,
              -16.5646732
            ],
            [
              -68.1798448,
              -16.5635666
            ],
            [
              -68.1805992,
              -16.5615863
            ],
            [
              -68.1784669,
              -16.5588192
            ],
            [
              -68.1783071,
              -16.5586118
            ],
            [
              -68.1776776,
              -16.557795
            ],
            [
              -68.1772292,
              -16.5572141
            ],
            [
              -68.1771398,
              -16.5570984
            ],
            [
              -68.1761182,
              -16.5557752
            ],
            [
              -68.1760199,
              -16.5556479
            ],
            [
              -68.1760196,
              -16.5556476
            ],
            [
              -68.1760191,
              -16.5556468
            ],
            [
              -68.175696,
              -16.5555821
            ],
            [
              -68.1754903,
              -16.5555409
            ],
            [
              -68.1754363,
              -16.55553
            ],
            [
              -68.1749711,
              -16.5554367
            ],
            [
              -68.1747255,
              -16.5553874
            ],
            [
              -68.1741023,
              -16.5552625
            ],
            [
              -68.1741001,
              -16.555262
            ],
            [
              -68.1737278,
              -16.5500645
            ],
            [
              -68.1738213,
              -16.5500664
            ],
            [
              -68.1742132,
              -16.5500744
            ],
            [
              -68.1742262,
              -16.5500746
            ],
            [
              -68.1741495,
              -16.5499324
            ],
            [
              -68.1736383,
              -16.5489855
            ],
            [
              -68.1736381,
              -16.5489852
            ],
            [
              -68.1734129,
              -16.5468451
            ],
            [
              -68.1734128,
              -16.546844
            ],
            [
              -68.1718615,
              -16.5456977
            ],
            [
              -68.170806,
              -16.5449177
            ],
            [
              -68.1704411,
              -16.5464727
            ],
            [
              -68.1703291,
              -16.5469497
            ],
            [
              -68.1695793,
              -16.546983
            ],
            [
              -68.168763,
              -16.5472149
            ],
            [
              -68.1674056,
              -16.5481289
            ],
            [
              -68.1663208,
              -16.5488593
            ],
            [
              -68.1663204,
              -16.5488596
            ],
            [
              -68.1637239,
              -16.5468729
            ],
            [
              -68.162983,
              -16.5458701
            ],
            [
              -68.1629822,
              -16.5458689
            ],
            [
              -68.1619897,
              -16.5445255
            ],
            [
              -68.1603987,
              -16.5423717
            ],
            [
              -68.1603979,
              -16.5423707
            ],
            [
              -68.1556844,
              -16.5417496
            ],
            [
              -68.1537926,
              -16.5415003
            ],
            [
              -68.1522978,
              -16.5416489
            ],
            [
              -68.1499405,
              -16.5418833
            ],
            [
              -68.14994,
              -16.5418834
            ],
            [
              -68.1493412,
              -16.5415086
            ],
            [
              -68.1485359,
              -16.5410046
            ],
            [
              -68.1475024,
              -16.5404452
            ],
            [
              -68.1463879,
              -16.5398418
            ],
            [
              -68.1463875,
              -16.5398416
            ],
            [
              -68.145928,
              -16.5367984
            ],
            [
              -68.1494034,
              -16.5336879
            ],
            [
              -68.1478466,
              -16.5313543
            ],
            [
              -68.1472842,
              -16.5305113
            ],
            [
              -68.1456109,
              -16.5294447
            ],
            [
              -68.1448545,
              -16.5286311
            ],
            [
              -68.1471057,
              -16.5248768
            ],
            [
              -68.148304,
              -16.5216179
            ],
            [
              -68.1483407,
              -16.5213679
            ],
            [
              -68.1494275,
              -16.5204214
            ],
            [
              -68.1497868,
              -16.5192043
            ],
            [
              -68.1498973,
              -16.5183185
            ],
            [
              -68.1504982,
              -16.5178126
            ],
            [
              -68.1505971,
              -16.5176868
            ],
            [
              -68.1508354,
              -16.5171768
            ],
            [
              -68.1510646,
              -16.5166949
            ],
            [
              -68.1530008,
              -16.5126
            ],
            [
              -68.153001,
              -16.5125997
            ],
            [
              -68.1530019,
              -16.5125978
            ],
            [
              -68.1526051,
              -16.5126497
            ],
            [
              -68.1526029,
              -16.51265
            ],
            [
              -68.1526011,
              -16.5126502
            ],
            [
              -68.1531472,
              -16.511822
            ],
            [
              -68.1531476,
              -16.5118214
            ],
            [
              -68.153148,
              -16.5118208
            ],
            [
              -68.152889,
              -16.5117214
            ],
            [
              -68.1528873,
              -16.5117208
            ],
            [
              -68.1528861,
              -16.5117203
            ],
            [
              -68.1544462,
              -16.5088926
            ],
            [
              -68.1545383,
              -16.5087257
            ],
            [
              -68.1552893,
              -16.5078836
            ],
            [
              -68.1557366,
              -16.5073821
            ],
            [
              -68.1561974,
              -16.507841
            ],
            [
              -68.1561978,
              -16.5078407
            ],
            [
              -68.1589334,
              -16.505118
            ],
            [
              -68.1607905,
              -16.503403
            ],
            [
              -68.1610988,
              -16.5031183
            ],
            [
              -68.1614285,
              -16.5028138
            ],
            [
              -68.1618285,
              -16.5024443
            ],
            [
              -68.1618859,
              -16.502346
            ],
            [
              -68.1620817,
              -16.5020109
            ],
            [
              -68.1632092,
              -16.5000802
            ],
            [
              -68.1633112,
              -16.4999055
            ],
            [
              -68.1633159,
              -16.4998974
            ],
            [
              -68.1636052,
              -16.4980156
            ],
            [
              -68.1639421,
              -16.4976005
            ],
            [
              -68.1646693,
              -16.4967046
            ],
            [
              -68.1648219,
              -16.4968003
            ],
            [
              -68.164824,
              -16.496798
            ],
            [
              -68.1652011,
              -16.496372
            ],
            [
              -68.1652405,
              -16.4963541
            ],
            [
              -68.1666194,
              -16.4957256
            ],
            [
              -68.166634,
              -16.4957045
            ],
            [
              -68.1668313,
              -16.4954197
            ],
            [
              -68.1676219,
              -16.4951257
            ],
            [
              -68.167852,
              -16.4948424
            ],
            [
              -68.1698302,
              -16.4924064
            ],
            [
              -68.1705339,
              -16.4915398
            ],
            [
              -68.1705352,
              -16.4915378
            ],
            [
              -68.1710819,
              -16.4906484
            ],
            [
              -68.1709783,
              -16.4891088
            ],
            [
              -68.1709268,
              -16.4883432
            ],
            [
              -68.1709267,
              -16.4883414
            ],
            [
              -68.1707236,
              -16.4881916
            ],
            [
              -68.1706384,
              -16.488097
            ],
            [
              -68.1704679,
              -16.4879156
            ],
            [
              -68.1704244,
              -16.4876089
            ],
            [
              -68.1704698,
              -16.4874463
            ],
            [
              -68.1704781,
              -16.4874165
            ],
            [
              -68.170481,
              -16.4873694
            ],
            [
              -68.1704841,
              -16.4873204
            ],
            [
              -68.1704956,
              -16.4871336
            ],
            [
              -68.1704718,
              -16.4869909
            ],
            [
              -68.1704457,
              -16.4869568
            ],
            [
              -68.1701639,
              -16.4865887
            ],
            [
              -68.1701542,
              -16.486576
            ],
            [
              -68.1683666,
              -16.4841145
            ],
            [
              -68.1669167,
              -16.4821179
            ],
            [
              -68.1669166,
              -16.4821179
            ],
            [
              -68.1669166,
              -16.4821178
            ],
            [
              -68.166916,
              -16.482117
            ],
            [
              -68.1672874,
              -16.4804583
            ],
            [
              -68.1667756,
              -16.4809768
            ],
            [
              -68.1661795,
              -16.4816927
            ],
            [
              -68.1654135,
              -16.4824795
            ],
            [
              -68.1642673,
              -16.4825982
            ],
            [
              -68.1635161,
              -16.4822755
            ],
            [
              -68.1638061,
              -16.4798917
            ],
            [
              -68.1647376,
              -16.4795936
            ],
            [
              -68.1649382,
              -16.4795294
            ],
            [
              -68.1650624,
              -16.4793998
            ],
            [
              -68.1657918,
              -16.4786386
            ],
            [
              -68.1666137,
              -16.477142
            ],
            [
              -68.1667497,
              -16.4764421
            ],
            [
              -68.1673484,
              -16.4759406
            ],
            [
              -68.1677101,
              -16.4741042
            ],
            [
              -68.1679331,
              -16.4699005
            ],
            [
              -68.167624,
              -16.4692292
            ],
            [
              -68.1674453,
              -16.4688327
            ],
            [
              -68.1637216,
              -16.4605018
            ],
            [
              -68.1634946,
              -16.4600685
            ],
            [
              -68.1624268,
              -16.4580298
            ],
            [
              -68.1622429,
              -16.4576787
            ],
            [
              -68.1603934,
              -16.4573038
            ],
            [
              -68.1596969,
              -16.4561701
            ],
            [
              -68.1591051,
              -16.4552068
            ],
            [
              -68.158742,
              -16.453392
            ],
            [
              -68.1584494,
              -16.4519294
            ],
            [
              -68.1584042,
              -16.4517033
            ],
            [
              -68.1583086,
              -16.4512256
            ],
            [
              -68.1582917,
              -16.451141
            ],
            [
              -68.1582884,
              -16.4511287
            ],
            [
              -68.1574657,
              -16.4480778
            ],
            [
              -68.1574653,
              -16.4480766
            ],
            [
              -68.1573592,
              -16.4442182
            ],
            [
              -68.1573508,
              -16.4439139
            ],
            [
              -68.1570958,
              -16.4346424
            ],
            [
              -68.1570576,
              -16.433252
            ],
            [
              -68.1570472,
              -16.4328738
            ],
            [
              -68.1524391,
              -16.4299046
            ],
            [
              -68.1494432,
              -16.4279741
            ],
            [
              -68.1494451,
              -16.4275919
            ],
            [
              -68.1495852,
              -16.4004295
            ],
            [
              -68.1459282,
              -16.3679646
            ],
            [
              -68.1459278,
              -16.3679611
            ],
            [
              -68.1435539,
              -16.3580087
            ],
            [
              -68.1385035,
              -16.3502435
            ],
            [
              -68.1392104,
              -16.3401434
            ],
            [
              -68.1399182,
              -16.327627
            ],
            [
              -68.1455654,
              -16.3202821
            ],
            [
              -68.1503551,
              -16.316459
            ],
            [
              -68.1576435,
              -16.2850733
            ],
            [
              -68.1555647,
              -16.2786952
            ],
            [
              -68.1541208,
              -16.266133
            ],
            [
              -68.1537218,
              -16.2626621
            ]
          ]
        ]
      },
      "id": "relation/4499832"
    },
    {
      "type": "Feature",
      "properties": {
        "@id": "node/568203308",
        "@relations": [
          {
            "role": "admin_centre",
            "rel": 4499832,
            "reltags": {
              "admin_level": "8",
              "boundary": "administrative",
              "name": "El Alto",
              "official_name": "Municipio El Alto",
              "population": "405492",
              "population:1992": "405492",
              "population:2001": "649958",
              "population:2012": "848452",
              "population:2024": "885035",
              "source:population:1992": "INE-CENSO1992",
              "source:population:2001": "INE-CENSO2001",
              "source:population:2012": "INE-CENSO2012",
              "source:population:2024": "INE-CENSO2024",
              "start_date": "1985-03-06",
              "type": "boundary",
              "wikidata": "Q955745",
              "wikipedia": "en:El Alto Municipality"
            }
          }
        ]
      },
      "geometry": {
        "type": "Point",
        "coordinates": [
          -68.1624337,
          -16.5048228
        ]
      },
      "id": "node/568203308"
    }
  ]
}