{
  "type": "FeatureCollection",
  "generator": "overpass-turbo",
  "copyright": "The data included in this document is from www.openstreetmap.org. The data is made available under ODbL.",
  "timestamp": "2026-06-07T20:46:44Z",
  "features": [
    {
      "type": "Feature",
      "properties": {
        "@id": "way/328514682",
        "addr:city": "El Alto",
        "addr:neighbourhood": "Bolívar D",
        "addr:street": "Avenida Ladislao Cabrera",
        "amenity": "bus_station",
        "barrier": "fence",
        "bus": "yes",
        "fence_type": "metal",
        "level": "0",
        "name": "Terminal Metropolitana El Alto",
        "operator": "Gobierno Autónomo Municipal de El Alto",
        "public_transport": "station",
        "start_date": "2022-03-05",
        "wheelchair": "yes",
        "@geometry": "center"
      },
      "geometry": {
        "type": "Point",
        "coordinates": [
          -68.175483,
          -16.5195993
        ]
      },
      "id": "way/328514682"
    },
    {
      "type": "Feature",
      "properties": {
        "@id": "way/602719796",
        "addr:city": "El Alto",
        "amenity": "bus_station",
        "bus": "yes",
        "name": "Terminal de Transporte Interprovicial Ciudad de El Alto",
        "operator": "GAMEA",
        "public_transport": "station",
        "source:start_date": "https://www.tierraplus.com.bo/Bolivia/Ciudades/El-Gobierno-inauguro-primer-terminal-interprovincial-en-El-Alto/",
        "start_date": "2015",
        "wheelchair": "yes",
        "@geometry": "center"
      },
      "geometry": {
        "type": "Point",
        "coordinates": [
          -68.2001054,
          -16.4880732
        ]
      },
      "id": "way/602719796"
    },
    {
      "type": "Feature",
      "properties": {
        "@id": "node/4244032592",
        "amenity": "bus_station",
        "name": "Parada de Bus 549"
      },
      "geometry": {
        "type": "Point",
        "coordinates": [
          -68.2421857,
          -16.5553059
        ]
      },
      "id": "node/4244032592"
    },
    {
      "type": "Feature",
      "properties": {
        "@id": "node/4417510289",
        "amenity": "bus_station",
        "bus": "yes",
        "name": "Terminal de Buses del Alto",
        "operator": "GAMEA",
        "public_transport": "station",
        "wheelchair": "yes"
      },
      "geometry": {
        "type": "Point",
        "coordinates": [
          -68.1672268,
          -16.5104209
        ]
      },
      "id": "node/4417510289"
    },
    {
      "type": "Feature",
      "properties": {
        "@id": "node/4868050521",
        "amenity": "bus_station",
        "bus": "yes",
        "name": "Parada a Achocalla",
        "operator": "Público",
        "public_transport": "station"
      },
      "geometry": {
        "type": "Point",
        "coordinates": [
          -68.16178,
          -16.5053932
        ]
      },
      "id": "node/4868050521"
    },
    {
      "type": "Feature",
      "properties": {
        "@id": "node/5565406722",
        "amenity": "bus_station",
        "bus": "yes",
        "name": "Parada a Tiahuanacu",
        "public_transport": "station"
      },
      "geometry": {
        "type": "Point",
        "coordinates": [
          -68.2018114,
          -16.4906969
        ]
      },
      "id": "node/5565406722"
    },
    {
      "type": "Feature",
      "properties": {
        "@id": "node/5760588328",
        "amenity": "bus_station",
        "bus": "yes",
        "name": "Parada a Oruro",
        "public_transport": "station"
      },
      "geometry": {
        "type": "Point",
        "coordinates": [
          -68.1661104,
          -16.5104008
        ]
      },
      "id": "node/5760588328"
    },
    {
      "type": "Feature",
      "properties": {
        "@id": "node/6133891286",
        "amenity": "bus_station",
        "bus": "yes",
        "name": "Parada a Patacamaya",
        "public_transport": "station"
      },
      "geometry": {
        "type": "Point",
        "coordinates": [
          -68.1661735,
          -16.5103394
        ]
      },
      "id": "node/6133891286"
    },
    {
      "type": "Feature",
      "properties": {
        "@id": "node/6647043987",
        "amenity": "bus_station",
        "name": "Eppo s.a."
      },
      "geometry": {
        "type": "Point",
        "coordinates": [
          -81.2185882,
          -4.2671971
        ]
      },
      "id": "node/6647043987"
    },
    {
      "type": "Feature",
      "properties": {
        "@id": "node/9943889017",
        "amenity": "bus_station",
        "name": "Colectivos a Copacabana"
      },
      "geometry": {
        "type": "Point",
        "coordinates": [
          -68.2015216,
          -16.4899534
        ]
      },
      "id": "node/9943889017"
    },
    {
      "type": "Feature",
      "properties": {
        "@id": "node/12428082501",
        "amenity": "bus_station",
        "name": "Colectivos a Patacamaya"
      },
      "geometry": {
        "type": "Point",
        "coordinates": [
          -68.1632931,
          -16.5098475
        ]
      },
      "id": "node/12428082501"
    }
  ]
}